OBJECT_NAME,OBJECT_ID,EPOCH,MEAN_MOTION,ECCENTRICITY,INCLINATION,RA_OF_ASC_NODE,ARG_OF_PERICENTER,MEAN_ANOMALY,EPHEMERIS_TYPE,CLASSIFICATION_TYPE,NORAD_CAT_ID,ELEMENT_SET_NO,REV_AT_EPOCH,BSTAR,MEAN_MOTION_DOT,MEAN_MOTION_DDOT
STARLINK-5025,2022-119AL,2026-07-22T14:30:54.000288,15.29368801,.00018748,53.1596,66.6744,80.7340,279.3872,0,U,53920,999,21221,.70856128E-4,.169E-4,0
STARLINK-5002,2022-119AN,2026-07-22T07:46:45.753024,15.08831919,.00013907,53.1600,69.1672,96.6617,263.4533,0,U,53922,999,21215,-.1193781E-5,-.307E-5,0
STARLINK-5004,2022-119AP,2026-07-21T16:03:31.485024,15.08828633,.00014356,53.1600,72.1882,88.6361,271.4795,0,U,53923,999,21205,-.37282575E-4,-.881E-5,0
STARLINK-5001,2022-119AQ,2026-07-22T14:00:03.000384,15.37367245,.00010554,53.2171,47.8945,101.0340,210.9304,0,U,53924,999,556,-.31662019E-1,-.107946E-1,0
STARLINK-5011,2022-119AR,2026-07-21T09:10:08.505696,15.08834571,.00014622,53.1608,73.2542,81.3430,278.7727,0,U,53925,999,21201,-.394026E-6,-.294E-5,0
STARLINK-5014,2022-119AS,2026-07-22T14:00:03.000384,15.33880072,.00015043,53.2173,36.1095,84.9808,74.5862,0,U,53926,999,598,-.33959801E-1,-.1038244E-1,0
STARLINK-5009,2022-119AU,2026-07-21T00:16:18.200928,15.08834951,.00014491,53.1605,65.2177,97.8302,262.2854,0,U,53928,999,21209,.86587115E-4,.109E-4,0
STARLINK-5018,2022-119AV,2026-07-22T08:09:22.642560,15.29357621,.00009461,53.1606,67.8558,107.7150,252.3953,0,U,53929,999,21217,.1152888E-5,-.322E-5,0
STARLINK-5010,2022-119AW,2026-07-22T14:00:03.000384,15.65622308,.00010239,53.2178,16.7319,75.2189,99.1367,0,U,53930,999,601,-.34898441E-2,-.343827E-2,0
STARLINK-4772,2022-119AY,2026-07-21T00:40:50.221056,15.08832938,.00014157,53.1600,60.3315,93.6668,266.4485,0,U,53932,999,21217,-.1160894E-4,-.473E-5,0
STARLINK-4782,2022-119AZ,2026-07-22T14:20:14.790624,15.08837162,.00016843,53.1607,58.0533,69.1163,291.0008,0,U,53933,999,21233,.1446711E-5,-.265E-5,0
STARLINK-4775,2022-119BA,2026-07-21T14:54:00.453312,15.08832812,.00016928,53.1609,57.6308,95.7755,264.3429,0,U,53934,999,21227,.8428558E-5,-.154E-5,0
STARLINK-4791,2022-119BC,2026-07-22T13:53:46.633344,15.31722026,.00009884,53.1595,48.7462,91.3597,268.7517,0,U,53936,999,21247,.12534532E-3,.3529E-4,0
STARLINK-4633,2022-125A,2026-07-21T15:38:24.845280,15.08844708,.0000643,53.1624,342.5986,113.0424,247.0636,0,U,53964,999,20954,.95150132E-4,.1227E-4,0
STARLINK-4635,2022-125C,2026-07-21T18:38:33.638208,15.08836274,.00011122,53.1619,341.9570,91.2344,268.8775,0,U,53966,999,20956,.36362379E-4,.291E-5,0
STARLINK-4634,2022-125D,2026-07-22T08:51:43.599168,15.08835655,.00012855,53.1604,339.2549,88.2737,271.8401,0,U,53967,999,20965,.61172905E-4,.686E-5,0
STARLINK-4629,2022-125E,2026-07-22T08:35:48.631200,15.08834582,.00013355,53.1623,339.1870,97.3407,262.7736,0,U,53968,999,20965,.40458746E-4,.356E-5,0
STARLINK-4468,2022-125F,2026-07-22T10:21:28.956096,15.09033036,.00034745,53.1614,338.9334,110.3091,249.8274,0,U,53969,999,20966,.13807095E-2,.21873E-3,0
STARLINK-4567,2022-125G,2026-07-22T14:00:03.000384,15.24379918,.00009418,53.1592,332.1395,50.4450,279.0258,0,U,53970,999,580,.10601002E-2,.26062E-3,0
STARLINK-5156,2022-125K,2026-07-21T08:39:43.297056,15.08829682,.00012587,53.1622,343.6313,93.3486,266.7650,0,U,53973,999,20950,.23500787E-4,.86E-6,0
STARLINK-5159,2022-125L,2026-07-22T14:00:03.000384,15.20635306,.00013182,53.1608,317.3290,80.2108,168.3778,0,U,53974,999,579,.15533368E-2,.34347E-3,0
STARLINK-5137,2022-125M,2026-07-21T09:30:40.711392,15.08822379,.00012766,53.1649,338.1684,97.8003,262.3133,0,U,53975,999,20958,-.12813653E-3,-.2326E-4,0
STARLINK-5134,2022-125N,2026-07-22T07:24:48.102048,15.29373341,.0001243,53.1604,317.5524,89.0073,271.1070,0,U,53976,999,20995,.13157286E-3,.3444E-4,0
STARLINK-5094,2022-125P,2026-07-22T14:00:03.000384,15.29149163,.00012571,53.1608,331.7981,68.4853,73.0582,0,U,53977,999,578,.13468509E-2,.38463E-3,0
STARLINK-5148,2022-125Q,2026-07-21T18:15:21.074976,15.08824829,.00011651,53.1601,336.8679,104.8562,255.2558,0,U,53978,999,20963,.15168933E-3,.2126E-4,0
STARLINK-5123,2022-125R,2026-07-22T10:19:49.008576,15.08837795,.00012011,53.1608,333.9374,91.0358,269.0771,0,U,53979,999,20973,.29243749E-4,.177E-5,0
STARLINK-5133,2022-125S,2026-07-22T01:45:45.277344,15.08822040,.0001115,53.1616,335.2711,89.4809,270.6310,0,U,53980,999,20968,.13589425E-3,.1875E-4,0
STARLINK-5149,2022-125T,2026-07-22T07:25:13.566720,15.31701682,.00009823,53.1614,317.5605,84.7894,275.3220,0,U,53981,999,20995,.62342541E-4,.157E-4,0
STARLINK-5120,2022-125U,2026-07-22T08:47:45.146400,15.08844072,.00014018,53.1596,329.2666,103.1966,256.9182,0,U,53982,999,20978,-.51615215E-4,-.111E-4,0
STARLINK-5142,2022-125W,2026-07-22T09:03:40.566240,15.08827791,.00008172,53.1620,329.3357,97.3788,262.7297,0,U,53984,999,20979,-.36265394E-4,-.865E-5,0
