{"epoch":1784762836,"count":18316,"objects":[{"id":"53920","name":"STARLINK-5025","type":"PAYLOAD","l1":"1 53920U 22119AL  26203.60479167  .00001690  00000-0  70856-4 0  9993","l2":"2 53920  53.1596  66.6744 0001875  80.7340 279.3872 15.29368801212215"},{"id":"53922","name":"STARLINK-5002","type":"PAYLOAD","l1":"1 53922U 22119AN  26203.32414066 -.00000307  00000-0 -11938-5 0  9994","l2":"2 53922  53.1600  69.1672 0001391  96.6617 263.4533 15.08831919212150"},{"id":"53923","name":"STARLINK-5004","type":"PAYLOAD","l1":"1 53923U 22119AP  26202.66911441 -.00000881  00000-0 -37283-4 0  9997","l2":"2 53923  53.1600  72.1882 0001436  88.6361 271.4795 15.08828633212052"},{"id":"53924","name":"STARLINK-5001","type":"PAYLOAD","l1":"1 53924U 22119AQ  26203.58336806 -.01079460  00000-0 -31662-1 0  9998","l2":"2 53924  53.2171  47.8945 0001055 101.0340 210.9304 15.37367245  5569"},{"id":"53925","name":"STARLINK-5011","type":"PAYLOAD","l1":"1 53925U 22119AR  26202.38204289 -.00000294  00000-0 -39403-6 0  9999","l2":"2 53925  53.1608  73.2542 0001462  81.3430 278.7727 15.08834571212012"},{"id":"53926","name":"STARLINK-5014","type":"PAYLOAD","l1":"1 53926U 22119AS  26203.58336806 -.01038244  00000-0 -33960-1 0  9998","l2":"2 53926  53.2173  36.1095 0001504  84.9808  74.5862 15.33880072  5980"},{"id":"53928","name":"STARLINK-5009","type":"PAYLOAD","l1":"1 53928U 22119AU  26202.01132177  .00001090  00000-0  86587-4 0  9994","l2":"2 53928  53.1605  65.2177 0001449  97.8302 262.2854 15.08834951212091"},{"id":"53929","name":"STARLINK-5018","type":"PAYLOAD","l1":"1 53929U 22119AV  26203.33984540 -.00000322  00000-0  11529-5 0  9993","l2":"2 53929  53.1606  67.8558 0000946 107.7150 252.3953 15.29357621212173"},{"id":"53930","name":"STARLINK-5010","type":"PAYLOAD","l1":"1 53930U 22119AW  26203.58336806 -.00343827  00000-0 -34898-2 0  9990","l2":"2 53930  53.2178  16.7319 0001024  75.2189  99.1367 15.65622308  6014"},{"id":"53932","name":"STARLINK-4772","type":"PAYLOAD","l1":"1 53932U 22119AY  26202.02835904 -.00000473  00000-0 -11609-4 0  9997","l2":"2 53932  53.1600  60.3315 0001416  93.6668 266.4485 15.08832938212172"},{"id":"53933","name":"STARLINK-4782","type":"PAYLOAD","l1":"1 53933U 22119AZ  26203.59739341 -.00000265  00000-0  14467-5 0  9993","l2":"2 53933  53.1607  58.0533 0001684  69.1163 291.0008 15.08837162212338"},{"id":"53934","name":"STARLINK-4775","type":"PAYLOAD","l1":"1 53934U 22119BA  26202.62083858 -.00000154  00000-0  84286-5 0  9995","l2":"2 53934  53.1609  57.6308 0001693  95.7755 264.3429 15.08832812212278"},{"id":"53936","name":"STARLINK-4791","type":"PAYLOAD","l1":"1 53936U 22119BC  26203.57901196  .00003529  00000-0  12535-3 0  9990","l2":"2 53936  53.1595  48.7462 0000988  91.3597 268.7517 15.31722026212477"},{"id":"53964","name":"STARLINK-4633","type":"PAYLOAD","l1":"1 53964U 22125A   26202.65167645  .00001227  00000-0  95150-4 0  9997","l2":"2 53964  53.1624 342.5986 0000643 113.0424 247.0636 15.08844708209548"},{"id":"53966","name":"STARLINK-4635","type":"PAYLOAD","l1":"1 53966U 22125C   26202.77677822  .00000291  00000-0  36362-4 0  9995","l2":"2 53966  53.1619 341.9570 0001112  91.2344 268.8775 15.08836274209562"},{"id":"53967","name":"STARLINK-4634","type":"PAYLOAD","l1":"1 53967U 22125D   26203.36925462  .00000686  00000-0  61173-4 0  9994","l2":"2 53967  53.1604 339.2549 0001285  88.2737 271.8401 15.08835655209658"},{"id":"53968","name":"STARLINK-4629","type":"PAYLOAD","l1":"1 53968U 22125E   26203.35820175  .00000356  00000-0  40459-4 0  9997","l2":"2 53968  53.1623 339.1870 0001335  97.3407 262.7736 15.08834582209655"},{"id":"53969","name":"STARLINK-4468","type":"PAYLOAD","l1":"1 53969U 22125F   26203.43158514  .00021873  00000-0  13807-2 0  9990","l2":"2 53969  53.1614 338.9334 0003475 110.3091 249.8274 15.09033036209660"},{"id":"53970","name":"STARLINK-4567","type":"PAYLOAD","l1":"1 53970U 22125G   26203.58336806  .00026062  00000-0  10601-2 0  9994","l2":"2 53970  53.1592 332.1395 0000942  50.4450 279.0258 15.24379918  5805"},{"id":"53973","name":"STARLINK-5156","type":"PAYLOAD","l1":"1 53973U 22125K   26202.36091779  .00000086  00000-0  23501-4 0  9992","l2":"2 53973  53.1622 343.6313 0001259  93.3486 266.7650 15.08829682209508"},{"id":"53974","name":"STARLINK-5159","type":"PAYLOAD","l1":"1 53974U 22125L   26203.58336806  .00034347  00000-0  15533-2 0  9992","l2":"2 53974  53.1608 317.3290 0001318  80.2108 168.3778 15.20635306  5792"},{"id":"53975","name":"STARLINK-5137","type":"PAYLOAD","l1":"1 53975U 22125M   26202.39630453 -.00002326  00000-0 -12814-3 0  9990","l2":"2 53975  53.1649 338.1684 0001277  97.8003 262.3133 15.08822379209585"},{"id":"53976","name":"STARLINK-5134","type":"PAYLOAD","l1":"1 53976U 22125N   26203.30889007  .00003444  00000-0  13157-3 0  9995","l2":"2 53976  53.1604 317.5524 0001243  89.0073 271.1070 15.29373341209956"},{"id":"53977","name":"STARLINK-5094","type":"PAYLOAD","l1":"1 53977U 22125P   26203.58336806  .00038463  00000-0  13469-2 0  9994","l2":"2 53977  53.1608 331.7981 0001257  68.4853  73.0582 15.29149163  5783"},{"id":"53978","name":"STARLINK-5148","type":"PAYLOAD","l1":"1 53978U 22125Q   26202.76066059  .00002126  00000-0  15169-3 0  9991","l2":"2 53978  53.1601 336.8679 0001165 104.8562 255.2558 15.08824829209630"},{"id":"53979","name":"STARLINK-5123","type":"PAYLOAD","l1":"1 53979U 22125R   26203.43042834  .00000177  00000-0  29244-4 0  9996","l2":"2 53979  53.1608 333.9374 0001201  91.0358 269.0771 15.08837795209736"},{"id":"53980","name":"STARLINK-5133","type":"PAYLOAD","l1":"1 53980U 22125S   26203.07344071  .00001875  00000-0  13589-3 0  9996","l2":"2 53980  53.1616 335.2711 0001115  89.4809 270.6310 15.08822040209681"},{"id":"53981","name":"STARLINK-5149","type":"PAYLOAD","l1":"1 53981U 22125T   26203.30918480  .00001570  00000-0  62343-4 0  9999","l2":"2 53981  53.1614 317.5605 0000982  84.7894 275.3220 15.31701682209954"},{"id":"53982","name":"STARLINK-5120","type":"PAYLOAD","l1":"1 53982U 22125U   26203.36649475 -.00001110  00000-0 -51615-4 0  9993","l2":"2 53982  53.1596 329.2666 0001402 103.1966 256.9182 15.08844072209783"},{"id":"53984","name":"STARLINK-5142","type":"PAYLOAD","l1":"1 53984U 22125W   26203.37755285 -.00000865  00000-0 -36265-4 0  9993","l2":"2 53984  53.1620 329.3357 0000817  97.3788 262.7297 15.08827791209798"}]}